{"type": "FeatureCollection", "features": [ {"type": "Feature", "properties": {"norad_id": 43262, "name": "GAOFEN-1 04", "group": "resource", "lat": -1.417794377817297, "lon": -141.8905656039391, "alt_km": 644.2589056745619, "timestamp": "2025-12-06T11:28:10.686864+00:00", "meta": {"OBJECT_NAME": "GAOFEN-1 04", "OBJECT_ID": "2018-031D", "EPOCH": "2025-12-05T23:15:55.533600", "MEAN_MOTION": 14.76428138, "ECCENTRICITY": 0.00012576, "INCLINATION": 98.0817, "RA_OF_ASC_NODE": 37.8022, "ARG_OF_PERICENTER": 62.3188, "MEAN_ANOMALY": 297.8148, "EPHEMERIS_TYPE": 0, "CLASSIFICATION_TYPE": "U", "NORAD_CAT_ID": 43262, "ELEMENT_SET_NO": 999, "REV_AT_EPOCH": 41417, "BSTAR": 0.00029037518, "MEAN_MOTION_DOT": 1.967e-05, "MEAN_MOTION_DDOT": 0}, "tle": {"line1": "1 43262U 18031D   25339.96939275  .00001967  00000+0  29038-3 0  9999", "line2": "2 43262  98.0817  37.8022 0001257  62.3188 297.8148 14.76428138414177"}}, "geometry": {"type": "Point", "coordinates": [-141.8905656039391, -1.417794377817297]}}, {"type": "Feature", "properties": {"norad_id": 43437, "name": "SENTINEL-3B", "group": "resource", "lat": 26.054530930159615, "lon": 41.49568987631468, "alt_km": 801.5383201891564, "timestamp": "2025-12-06T11:28:10.686874+00:00", "meta": {"OBJECT_NAME": "SENTINEL-3B", "OBJECT_ID": "2018-039A", "EPOCH": "2025-12-05T21:52:53.329440", "MEAN_MOTION": 14.26738795, "ECCENTRICITY": 0.0001492, "INCLINATION": 98.6274, "RA_OF_ASC_NODE": 45.1945, "ARG_OF_PERICENTER": 109.4025, "MEAN_ANOMALY": 250.7317, "EPHEMERIS_TYPE": 0, "CLASSIFICATION_TYPE": "U", "NORAD_CAT_ID": 43437, "ELEMENT_SET_NO": 999, "REV_AT_EPOCH": 39656, "BSTAR": 0.00014454336, "MEAN_MOTION_DOT": 3.06e-06, "MEAN_MOTION_DDOT": 0}, "tle": {"line1": "1 43437U 18039A   25339.91172835  .00000306  00000+0  14454-3 0  9999", "line2": "2 43437  98.6274  45.1945 0001492 109.4025 250.7317 14.26738795396560"}}, "geometry": {"type": "Point", "coordinates": [41.49568987631468, 26.054530930159615]}}, {"type": "Feature", "properties": {"norad_id": 43461, "name": "GAOFEN-5 01", "group": "resource", "lat": -22.057909310808153, "lon": -53.218173384050225, "alt_km": 696.3221147543018, "timestamp": "2025-12-06T11:28:10.686884+00:00", "meta": {"OBJECT_NAME": "GAOFEN-5 01", "OBJECT_ID": "2018-043A", "EPOCH": "2025-12-05T20:46:20.412192", "MEAN_MOTION": 14.60398049, "ECCENTRICITY": 0.0001405, "INCLINATION": 98.4315, "RA_OF_ASC_NODE": 302.7132, "ARG_OF_PERICENTER": 2.9741, "MEAN_ANOMALY": 357.1466, "EPHEMERIS_TYPE": 0, "CLASSIFICATION_TYPE": "U", "NORAD_CAT_ID": 43461, "ELEMENT_SET_NO": 999, "REV_AT_EPOCH": 40347, "BSTAR": 0.00021309407, "MEAN_MOTION_DOT": 9.83e-06, "MEAN_MOTION_DDOT": 0}, "tle": {"line1": "1 43461U 18043A   25339.86551403  .00000983  00000+0  21309-3 0  9995", "line2": "2 43461  98.4315 302.7132 0001405   2.9741 357.1466 14.60398049403475"}}, "geometry": {"type": "Point", "coordinates": [-53.218173384050225, -22.057909310808153]}}, {"type": "Feature", "properties": {"norad_id": 43484, "name": "GAOFEN-6", "group": "resource", "lat": -29.963047804338387, "lon": 49.489529082943825, "alt_km": 649.7347808352706, "timestamp": "2025-12-06T11:28:10.686895+00:00", "meta": {"OBJECT_NAME": "GAOFEN-6", "OBJECT_ID": "2018-048A", "EPOCH": "2025-12-05T20:58:07.889088", "MEAN_MOTION": 14.76545942, "ECCENTRICITY": 0.00133417, "INCLINATION": 97.8041, "RA_OF_ASC_NODE": 44.3708, "ARG_OF_PERICENTER": 83.8978, "MEAN_ANOMALY": 276.3752, "EPHEMERIS_TYPE": 0, "CLASSIFICATION_TYPE": "U", "NORAD_CAT_ID": 43484, "ELEMENT_SET_NO": 999, "REV_AT_EPOCH": 40486, "BSTAR": 0.0001101151, "MEAN_MOTION_DOT": 7.19e-06, "MEAN_MOTION_DDOT": 0}, "tle": {"line1": "1 43484U 18048A   25339.87370242  .00000719  00000+0  11012-3 0  9993", "line2": "2 43484  97.8041  44.3708 0013341  83.8978 276.3752 14.76545942404866"}}, "geometry": {"type": "Point", "coordinates": [49.489529082943825, -29.963047804338387]}}, {"type": "Feature", "properties": {"norad_id": 43585, "name": "GAOFEN-11 01", "group": "resource", "lat": -55.127113685320566, "lon": 53.85373115985378, "alt_km": 424.29996383201524, "timestamp": "2025-12-06T11:28:10.686906+00:00", "meta": {"OBJECT_NAME": "GAOFEN-11 01", "OBJECT_ID": "2018-063A", "EPOCH": "2025-12-05T23:18:22.287456", "MEAN_MOTION": 15.48938311, "ECCENTRICITY": 0.0004752, "INCLINATION": 97.1569, "RA_OF_ASC_NODE": 42.9638, "ARG_OF_PERICENTER": 343.6984, "MEAN_ANOMALY": 16.4114, "EPHEMERIS_TYPE": 0, "CLASSIFICATION_TYPE": "U", "NORAD_CAT_ID": 43585, "ELEMENT_SET_NO": 999, "REV_AT_EPOCH": 41037, "BSTAR": 0.00039998496, "MEAN_MOTION_DOT": 0.00021543, "MEAN_MOTION_DDOT": 0}, "tle": {"line1": "1 43585U 18063A   25339.97109129  .00021543  00000+0  39998-3 0  9998", "line2": "2 43585  97.1569  42.9638 0004752 343.6984  16.4114 15.48938311410376"}}, "geometry": {"type": "Point", "coordinates": [53.85373115985378, -55.127113685320566]}}, {"type": "Feature", "properties": {"norad_id": 43613, "name": "ICESAT-2", "group": "resource", "lat": 29.059077362545086, "lon": 60.16216658100594, "alt_km": 479.02069449596183, "timestamp": "2025-12-06T11:28:10.686916+00:00", "meta": {"OBJECT_NAME": "ICESAT-2", "OBJECT_ID": "2018-070A", "EPOCH": "2025-12-05T22:14:19.755456", "MEAN_MOTION": 15.28142401, "ECCENTRICITY": 0.00016216, "INCLINATION": 92.0054, "RA_OF_ASC_NODE": 238.8978, "ARG_OF_PERICENTER": 164.5281, "MEAN_ANOMALY": 195.6018, "EPHEMERIS_TYPE": 0, "CLASSIFICATION_TYPE": "U", "NORAD_CAT_ID": 43613, "ELEMENT_SET_NO": 999, "REV_AT_EPOCH": 40294, "BSTAR": 0.00071193332, "MEAN_MOTION_DOT": 0.00019545, "MEAN_MOTION_DDOT": 0}, "tle": {"line1": "1 43613U 18070A   25339.92661754  .00019545  00000+0  71193-3 0  9992", "line2": "2 43613  92.0054 238.8978 0001621 164.5281 195.6018 15.28142401402948"}}, "geometry": {"type": "Point", "coordinates": [60.16216658100594, 29.059077362545086]}}, {"type": "Feature", "properties": {"norad_id": 43719, "name": "HYSIS", "group": "resource", "lat": -41.13451935241891, "lon": 50.551509397330555, "alt_km": 640.537522042353, "timestamp": "2025-12-06T11:28:10.686926+00:00", "meta": {"OBJECT_NAME": "HYSIS", "OBJECT_ID": "2018-096A", "EPOCH": "2025-12-05T22:39:52.436160", "MEAN_MOTION": 14.78615667, "ECCENTRICITY": 0.0001603, "INCLINATION": 98.0106, "RA_OF_ASC_NODE": 42.9554, "ARG_OF_PERICENTER": 63.9211, "MEAN_ANOMALY": 296.2165, "EPHEMERIS_TYPE": 0, "CLASSIFICATION_TYPE": "U", "NORAD_CAT_ID": 43719, "ELEMENT_SET_NO": 999, "REV_AT_EPOCH": 37886, "BSTAR": 0.00036108996, "MEAN_MOTION_DOT": 2.592e-05, "MEAN_MOTION_DDOT": 0}, "tle": {"line1": "1 43719U 18096A   25339.94435690  .00002592  00000+0  36109-3 0  9999", "line2": "2 43719  98.0106  42.9554 0001603  63.9211 296.2165 14.78615667378865"}}, "geometry": {"type": "Point", "coordinates": [50.551509397330555, -41.13451935241891]}}, {"type": "Feature", "properties": {"norad_id": 43783, "name": "KAZSTSAT", "group": "resource", "lat": 82.46409861852439, "lon": -65.90143074680812, "alt_km": 561.821552109137, "timestamp": "2025-12-06T11:28:10.686937+00:00", "meta": {"OBJECT_NAME": "KAZSTSAT", "OBJECT_ID": "2018-099AB", "EPOCH": "2025-12-05T22:15:39.439584", "MEAN_MOTION": 14.99318025, "ECCENTRICITY": 0.0006317, "INCLINATION": 97.4553, "RA_OF_ASC_NODE": 15.4054, "ARG_OF_PERICENTER": 356.8778, "MEAN_ANOMALY": 3.2405, "EPHEMERIS_TYPE": 0, "CLASSIFICATION_TYPE": "U", "NORAD_CAT_ID": 43783, "ELEMENT_SET_NO": 999, "REV_AT_EPOCH": 38234, "BSTAR": 0.00027585766, "MEAN_MOTION_DOT": 3.315e-05, "MEAN_MOTION_DDOT": 0}, "tle": {"line1": "1 43783U 18099AB  25339.92753981  .00003315  00000+0  27586-3 0  9990", "line2": "2 43783  97.4553  15.4054 0006317 356.8778   3.2405 14.99318025382346"}}, "geometry": {"type": "Point", "coordinates": [-65.90143074680812, 82.46409861852439]}}, {"type": "Feature", "properties": {"norad_id": 43831, "name": "SAUDISAT 5A", "group": "resource", "lat": -82.63592524509124, "lon": 126.27710559790877, "alt_km": 504.65079957568196, "timestamp": "2025-12-06T11:28:10.686947+00:00", "meta": {"OBJECT_NAME": "SAUDISAT 5A", "OBJECT_ID": "2018-102A", "EPOCH": "2025-12-05T23:16:04.771488", "MEAN_MOTION": 15.25530196, "ECCENTRICITY": 0.00118498, "INCLINATION": 97.3364, "RA_OF_ASC_NODE": 40.292, "ARG_OF_PERICENTER": 96.9807, "MEAN_ANOMALY": 263.278, "EPHEMERIS_TYPE": 0, "CLASSIFICATION_TYPE": "U", "NORAD_CAT_ID": 43831, "ELEMENT_SET_NO": 999, "REV_AT_EPOCH": 38619, "BSTAR": 0.00038065769, "MEAN_MOTION_DOT": 9.602e-05, "MEAN_MOTION_DDOT": 0}, "tle": {"line1": "1 43831U 18102A   25339.96949967  .00009602  00000+0  38066-3 0  9994", "line2": "2 43831  97.3364  40.2920 0011849  96.9807 263.2780 15.25530196386194"}}, "geometry": {"type": "Point", "coordinates": [126.27710559790877, -82.63592524509124]}}, {"type": "Feature", "properties": {"norad_id": 43833, "name": "SAUDISAT 5B", "group": "resource", "lat": -44.86909063623374, "lon": 50.89596756104849, "alt_km": 501.7340122685591, "timestamp": "2025-12-06T11:28:10.686958+00:00", "meta": {"OBJECT_NAME": "SAUDISAT 5B", "OBJECT_ID": "2018-102C", "EPOCH": "2025-12-05T23:04:38.374464", "MEAN_MOTION": 15.25885332, "ECCENTRICITY": 0.001252, "INCLINATION": 97.3457, "RA_OF_ASC_NODE": 43.0106, "ARG_OF_PERICENTER": 99.415, "MEAN_ANOMALY": 260.8504, "EPHEMERIS_TYPE": 0, "CLASSIFICATION_TYPE": "U", "NORAD_CAT_ID": 43833, "ELEMENT_SET_NO": 999, "REV_AT_EPOCH": 38630, "BSTAR": 0.00036970083, "MEAN_MOTION_DOT": 9.425e-05, "MEAN_MOTION_DDOT": 0}, "tle": {"line1": "1 43833U 18102C   25339.96155526  .00009425  00000+0  36970-3 0  9991", "line2": "2 43833  97.3457  43.0106 0012520  99.4150 260.8504 15.25885332386307"}}, "geometry": {"type": "Point", "coordinates": [50.89596756104849, -44.86909063623374]}}]}